{
  "type": "FeatureCollection",
  "features": [
    {
      "type": "Feature",
      "properties": {
        "norad_id": 34497,
        "name": "IRIDIUM 33 DEB",
        "group": "iridium-33-debris",
        "lat": -68.78445429673431,
        "lon": -123.93923432457332,
        "alt_km": 767.4465056064655,
        "timestamp": "2025-12-26T18:39:32.665549+00:00",
        "meta_object_name": "IRIDIUM 33 DEB",
        "meta_object_id": "1997-051GN",
        "meta_epoch": "2025-12-22T21:33:03.136608",
        "meta_mean_motion": 14.27482363,
        "meta_eccentricity": 0.00780484,
        "meta_inclination": 86.2769,
        "meta_ra_of_asc_node": 48.0617,
        "meta_arg_of_pericenter": 306.2683,
        "meta_mean_anomaly": 179.2919,
        "meta_ephemeris_type": 0,
        "meta_classification_type": "U",
        "meta_norad_cat_id": 34497,
        "meta_element_set_no": 999,
        "meta_rev_at_epoch": 87028,
        "meta_bstar": 0.00056228088,
        "meta_mean_motion_dot": 1.443e-05,
        "meta_mean_motion_ddot": 0,
        "tle_line1": "1 34497U 97051GN  25356.89795297  .00001443  00000+0  56228-3 0  9993",
        "tle_line2": "2 34497  86.2769  48.0617 0078048 306.2683 179.2919 14.27482363870281"
      },
      "geometry": {
        "type": "Point",
        "coordinates": [
          -123.93923432457332,
          -68.78445429673431
        ]
      }
    },
    {
      "type": "Feature",
      "properties": {
        "norad_id": 34508,
        "name": "IRIDIUM 33 DEB",
        "group": "iridium-33-debris",
        "lat": -63.56179011519811,
        "lon": -75.97304143033871,
        "alt_km": 791.1076656884807,
        "timestamp": "2025-12-26T18:39:32.665559+00:00",
        "meta_object_name": "IRIDIUM 33 DEB",
        "meta_object_id": "1997-051GZ",
        "meta_epoch": "2025-12-26T07:31:07.370400",
        "meta_mean_motion": 14.38527608,
        "meta_eccentricity": 0.00666813,
        "meta_inclination": 86.3698,
        "meta_ra_of_asc_node": 96.8885,
        "meta_arg_of_pericenter": 129.474,
        "meta_mean_anomaly": 231.2383,
        "meta_ephemeris_type": 0,
        "meta_classification_type": "U",
        "meta_norad_cat_id": 34508,
        "meta_element_set_no": 999,
        "meta_rev_at_epoch": 87504,
        "meta_bstar": 0.0012080759,
        "meta_mean_motion_dot": 3.808e-05,
        "meta_mean_motion_ddot": 0,
        "tle_line1": "1 34508U 97051GZ  25360.31327975  .00003808  00000+0  12081-2 0  9997",
        "tle_line2": "2 34508  86.3698  96.8885 0066681 129.4740 231.2383 14.38527608875040"
      },
      "geometry": {
        "type": "Point",
        "coordinates": [
          -75.97304143033871,
          -63.56179011519811
        ]
      }
    },
    {
      "type": "Feature",
      "properties": {
        "norad_id": 34521,
        "name": "IRIDIUM 33 DEB",
        "group": "iridium-33-debris",
        "lat": -59.41834153475036,
        "lon": -149.48262359676502,
        "alt_km": 688.6728370827159,
        "timestamp": "2025-12-26T18:39:32.665570+00:00",
        "meta_object_name": "IRIDIUM 33 DEB",
        "meta_object_id": "1997-051HN",
        "meta_epoch": "2025-12-26T12:38:41.835840",
        "meta_mean_motion": 14.63480775,
        "meta_eccentricity": 0.00033379,
        "meta_inclination": 86.379,
        "meta_ra_of_asc_node": 24.4764,
        "meta_arg_of_pericenter": 162.7334,
        "meta_mean_anomaly": 197.3992,
        "meta_ephemeris_type": 0,
        "meta_classification_type": "U",
        "meta_norad_cat_id": 34521,
        "meta_element_set_no": 999,
        "meta_rev_at_epoch": 88674,
        "meta_bstar": 0.00091375723,
        "meta_mean_motion_dot": 4.754e-05,
        "meta_mean_motion_ddot": 0,
        "tle_line1": "1 34521U 97051HN  25360.52687310  .00004754  00000+0  91376-3 0  9993",
        "tle_line2": "2 34521  86.3790  24.4764 0003337 162.7334 197.3992 14.63480775886747"
      },
      "geometry": {
        "type": "Point",
        "coordinates": [
          -149.48262359676502,
          -59.41834153475036
        ]
      }
    },
    {
      "type": "Feature",
      "properties": {
        "norad_id": 34525,
        "name": "IRIDIUM 33 DEB",
        "group": "iridium-33-debris",
        "lat": 75.45722300644736,
        "lon": -153.3067189578129,
        "alt_km": 738.4694082901715,
        "timestamp": "2025-12-26T18:39:32.665580+00:00",
        "meta_object_name": "IRIDIUM 33 DEB",
        "meta_object_id": "1997-051HS",
        "meta_epoch": "2025-12-26T13:53:42.987264",
        "meta_mean_motion": 14.42937761,
        "meta_eccentricity": 0.00061467,
        "meta_inclination": 86.3717,
        "meta_ra_of_asc_node": 40.936,
        "meta_arg_of_pericenter": 62.9394,
        "meta_mean_anomaly": 90.6558,
        "meta_ephemeris_type": 0,
        "meta_classification_type": "U",
        "meta_norad_cat_id": 34525,
        "meta_element_set_no": 999,
        "meta_rev_at_epoch": 88287,
        "meta_bstar": 0.00035936759,
        "meta_mean_motion_dot": 1.221e-05,
        "meta_mean_motion_ddot": 0,
        "tle_line1": "1 34525U 97051HS  25360.57896976  .00001221  00000+0  35937-3 0  9999",
        "tle_line2": "2 34525  86.3717  40.9360 0006146  62.9394  90.6558 14.42937761882875"
      },
      "geometry": {
        "type": "Point",
        "coordinates": [
          -153.3067189578129,
          75.45722300644736
        ]
      }
    },
    {
      "type": "Feature",
      "properties": {
        "norad_id": 34529,
        "name": "IRIDIUM 33 DEB",
        "group": "iridium-33-debris",
        "lat": -62.63295706912854,
        "lon": -143.51484605095064,
        "alt_km": 764.8832729689711,
        "timestamp": "2025-12-26T18:39:32.665590+00:00",
        "meta_object_name": "IRIDIUM 33 DEB",
        "meta_object_id": "1997-051HW",
        "meta_epoch": "2025-12-26T14:12:06.789600",
        "meta_mean_motion": 14.40627159,
        "meta_eccentricity": 0.00063085,
        "meta_inclination": 86.3628,
        "meta_ra_of_asc_node": 29.5057,
        "meta_arg_of_pericenter": 138.1705,
        "meta_mean_anomaly": 221.9977,
        "meta_ephemeris_type": 0,
        "meta_classification_type": "U",
        "meta_norad_cat_id": 34529,
        "meta_element_set_no": 999,
        "meta_rev_at_epoch": 88341,
        "meta_bstar": 0.00013424352,
        "meta_mean_motion_dot": 4.48e-06,
        "meta_mean_motion_ddot": 0,
        "tle_line1": "1 34529U 97051HW  25360.59174525  .00000448  00000+0  13424-3 0  9991",
        "tle_line2": "2 34529  86.3628  29.5057 0006308 138.1705 221.9977 14.40627159883418"
      },
      "geometry": {
        "type": "Point",
        "coordinates": [
          -143.51484605095064,
          -62.63295706912854
        ]
      }
    },
    {
      "type": "Feature",
      "properties": {
        "norad_id": 34538,
        "name": "IRIDIUM 33 DEB",
        "group": "iridium-33-debris",
        "lat": -3.886227779074563,
        "lon": 179.659853929676,
        "alt_km": 755.2968843480685,
        "timestamp": "2025-12-26T18:39:32.665601+00:00",
        "meta_object_name": "IRIDIUM 33 DEB",
        "meta_object_id": "1997-051JF",
        "meta_epoch": "2025-12-24T17:48:32.243904",
        "meta_mean_motion": 14.42715706,
        "meta_eccentricity": 0.00319126,
        "meta_inclination": 86.2764,
        "meta_ra_of_asc_node": 0.2977,
        "meta_arg_of_pericenter": 286.3391,
        "meta_mean_anomaly": 132.9527,
        "meta_ephemeris_type": 0,
        "meta_classification_type": "U",
        "meta_norad_cat_id": 34538,
        "meta_element_set_no": 999,
        "meta_rev_at_epoch": 87929,
        "meta_bstar": 0.00092856968,
        "meta_mean_motion_dot": 3.127e-05,
        "meta_mean_motion_ddot": 0,
        "tle_line1": "1 34538U 97051JF  25358.74203986  .00003127  00000+0  92857-3 0  9993",
        "tle_line2": "2 34538  86.2764   0.2977 0031912 286.3391 132.9527 14.42715706879292"
      },
      "geometry": {
        "type": "Point",
        "coordinates": [
          179.659853929676,
          -3.886227779074563
        ]
      }
    },
    {
      "type": "Feature",
      "properties": {
        "norad_id": 34540,
        "name": "IRIDIUM 33 DEB",
        "group": "iridium-33-debris",
        "lat": 83.00712629759096,
        "lon": 89.45348758520598,
        "alt_km": 623.4173575084824,
        "timestamp": "2025-12-26T18:39:32.665625+00:00",
        "meta_object_name": "IRIDIUM 33 DEB",
        "meta_object_id": "1997-051JH",
        "meta_epoch": "2025-12-26T07:30:51.838272",
        "meta_mean_motion": 14.75597732,
        "meta_eccentricity": 0.00184404,
        "meta_inclination": 86.311,
        "meta_ra_of_asc_node": 301.401,
        "meta_arg_of_pericenter": 114.305,
        "meta_mean_anomaly": 36.5387,
        "meta_ephemeris_type": 0,
        "meta_classification_type": "U",
        "meta_norad_cat_id": 34540,
        "meta_element_set_no": 999,
        "meta_rev_at_epoch": 89221,
        "meta_bstar": 0.0015801792,
        "meta_mean_motion_dot": 0.00010835,
        "meta_mean_motion_ddot": 0,
        "tle_line1": "1 34540U 97051JH  25360.31309998  .00010835  00000+0  15802-2 0  9990",
        "tle_line2": "2 34540  86.3110 301.4010 0018440 114.3050  36.5387 14.75597732892211"
      },
      "geometry": {
        "type": "Point",
        "coordinates": [
          89.45348758520598,
          83.00712629759096
        ]
      }
    }
  ]
}